{
  "type": "FeatureCollection",
  "features": [
    {
      "type": "Feature",
      "properties": {
        "norad_id": 46277,
        "name": "NEMO-HD",
        "group": "resource",
        "lat": -67.28154047236374,
        "lon": 69.63001950728915,
        "alt_km": 452.55119391170047,
        "timestamp": "2025-12-18T23:35:48.704953+00:00",
        "meta_object_name": "NEMO-HD",
        "meta_object_id": "2020-061F",
        "meta_epoch": "2025-12-18T14:32:21.762816",
        "meta_mean_motion": 15.40447266,
        "meta_eccentricity": 0.00015087,
        "meta_inclination": 97.221,
        "meta_ra_of_asc_node": 51.6296,
        "meta_arg_of_pericenter": 51.9424,
        "meta_mean_anomaly": 308.1959,
        "meta_ephemeris_type": 0,
        "meta_classification_type": "U",
        "meta_norad_cat_id": 46277,
        "meta_element_set_no": 999,
        "meta_rev_at_epoch": 29414,
        "meta_bstar": 0.00022542841,
        "meta_mean_motion_dot": 9.046e-05,
        "meta_mean_motion_ddot": 0,
        "tle_line1": "1 46277U 20061F   25352.60580744  .00009046  00000+0  22543-3 0  9993",
        "tle_line2": "2 46277  97.2210  51.6296 0001508  51.9424 308.1959 15.40447266294141"
      },
      "geometry": {
        "type": "Point",
        "coordinates": [
          69.63001950728915,
          -67.28154047236374
        ]
      }
    },
    {
      "type": "Feature",
      "properties": {
        "norad_id": 46984,
        "name": "SENTINEL-6A",
        "group": "resource",
        "lat": 65.86392867322908,
        "lon": -127.745022440862,
        "alt_km": 1336.3873625105134,
        "timestamp": "2025-12-18T23:35:48.704980+00:00",
        "meta_object_name": "SENTINEL-6A",
        "meta_object_id": "2020-086A",
        "meta_epoch": "2025-12-18T13:46:27.873408",
        "meta_mean_motion": 12.80930818,
        "meta_eccentricity": 0.00077113,
        "meta_inclination": 66.0392,
        "meta_ra_of_asc_node": 150.19,
        "meta_arg_of_pericenter": 269.2572,
        "meta_mean_anomaly": 90.756,
        "meta_ephemeris_type": 0,
        "meta_classification_type": "U",
        "meta_norad_cat_id": 46984,
        "meta_element_set_no": 999,
        "meta_rev_at_epoch": 23719,
        "meta_bstar": 2.760479e-06,
        "meta_mean_motion_dot": -6e-07,
        "meta_mean_motion_ddot": 0,
        "tle_line1": "1 46984U 20086A   25352.57393372 -.00000060  00000+0  27605-5 0  9994",
        "tle_line2": "2 46984  66.0392 150.1900 0007711 269.2572  90.7560 12.80930818237193"
      },
      "geometry": {
        "type": "Point",
        "coordinates": [
          -127.745022440862,
          65.86392867322908
        ]
      }
    },
    {
      "type": "Feature",
      "properties": {
        "norad_id": 48079,
        "name": "GAOFEN-12 02",
        "group": "resource",
        "lat": 45.88742975070196,
        "lon": 175.28473941438853,
        "alt_km": 621.4237310553726,
        "timestamp": "2025-12-18T23:35:48.704993+00:00",
        "meta_object_name": "GAOFEN-12 02",
        "meta_object_id": "2021-026A",
        "meta_epoch": "2025-12-18T14:53:13.907040",
        "meta_mean_motion": 14.80682189,
        "meta_eccentricity": 0.0003601,
        "meta_inclination": 97.9853,
        "meta_ra_of_asc_node": 346.5984,
        "meta_arg_of_pericenter": 89.4066,
        "meta_mean_anomaly": 270.7558,
        "meta_ephemeris_type": 0,
        "meta_classification_type": "U",
        "meta_norad_cat_id": 48079,
        "meta_element_set_no": 999,
        "meta_rev_at_epoch": 25504,
        "meta_bstar": 6.0539657e-05,
        "meta_mean_motion_dot": 4.13e-06,
        "meta_mean_motion_ddot": 0,
        "tle_line1": "1 48079U 21026A   25352.62029985  .00000413  00000+0  60540-4 0  9993",
        "tle_line2": "2 48079  97.9853 346.5984 0003601  89.4066 270.7558 14.80682189255040"
      },
      "geometry": {
        "type": "Point",
        "coordinates": [
          175.28473941438853,
          45.88742975070196
        ]
      }
    },
    {
      "type": "Feature",
      "properties": {
        "norad_id": 48268,
        "name": "PLEIADES NEO 3",
        "group": "resource",
        "lat": -42.25317751020895,
        "lon": -121.90713065922566,
        "alt_km": 631.3404118304352,
        "timestamp": "2025-12-18T23:35:48.705004+00:00",
        "meta_object_name": "PLEIADES NEO 3",
        "meta_object_id": "2021-034A",
        "meta_epoch": "2025-12-18T14:29:28.222368",
        "meta_mean_motion": 14.81670983,
        "meta_eccentricity": 0.00013224,
        "meta_inclination": 97.8952,
        "meta_ra_of_asc_node": 64.9611,
        "meta_arg_of_pericenter": 89.2302,
        "meta_mean_anomaly": 270.9062,
        "meta_ephemeris_type": 0,
        "meta_classification_type": "U",
        "meta_norad_cat_id": 48268,
        "meta_element_set_no": 999,
        "meta_rev_at_epoch": 25091,
        "meta_bstar": 8.6271347e-05,
        "meta_mean_motion_dot": 6.27e-06,
        "meta_mean_motion_ddot": 0,
        "tle_line1": "1 48268U 21034A   25352.60379887  .00000627  00000+0  86271-4 0  9995",
        "tle_line2": "2 48268  97.8952  64.9611 0001322  89.2302 270.9062 14.81670983250919"
      },
      "geometry": {
        "type": "Point",
        "coordinates": [
          -121.90713065922566,
          -42.25317751020895
        ]
      }
    },
    {
      "type": "Feature",
      "properties": {
        "norad_id": 49070,
        "name": "PLEIADES NEO 4",
        "group": "resource",
        "lat": 42.121196791585234,
        "lon": 58.122306367244306,
        "alt_km": 620.0530890384334,
        "timestamp": "2025-12-18T23:35:48.705015+00:00",
        "meta_object_name": "PLEIADES NEO 4",
        "meta_object_id": "2021-073E",
        "meta_epoch": "2025-12-18T15:18:04.610304",
        "meta_mean_motion": 14.81673962,
        "meta_eccentricity": 0.0001272,
        "meta_inclination": 97.895,
        "meta_ra_of_asc_node": 64.99,
        "meta_arg_of_pericenter": 92.7553,
        "meta_mean_anomaly": 267.3805,
        "meta_ephemeris_type": 0,
        "meta_classification_type": "U",
        "meta_norad_cat_id": 49070,
        "meta_element_set_no": 999,
        "meta_rev_at_epoch": 23463,
        "meta_bstar": 4.4795297e-05,
        "meta_mean_motion_dot": 3e-06,
        "meta_mean_motion_ddot": 0,
        "tle_line1": "1 49070U 21073E   25352.63755336  .00000300  00000+0  44795-4 0  9993",
        "tle_line2": "2 49070  97.8950  64.9900 0001272  92.7553 267.3805 14.81673962234637"
      },
      "geometry": {
        "type": "Point",
        "coordinates": [
          58.122306367244306,
          42.121196791585234
        ]
      }
    },
    {
      "type": "Feature",
      "properties": {
        "norad_id": 49260,
        "name": "LANDSAT 9",
        "group": "resource",
        "lat": -47.494733164331045,
        "lon": -128.0586813706472,
        "alt_km": 709.9488077926844,
        "timestamp": "2025-12-18T23:35:48.705025+00:00",
        "meta_object_name": "LANDSAT 9",
        "meta_object_id": "2021-088A",
        "meta_epoch": "2025-12-18T11:01:00.856416",
        "meta_mean_motion": 14.57103836,
        "meta_eccentricity": 0.00011165,
        "meta_inclination": 98.2089,
        "meta_ra_of_asc_node": 60.4871,
        "meta_arg_of_pericenter": 90.4673,
        "meta_mean_anomaly": 269.6653,
        "meta_ephemeris_type": 0,
        "meta_classification_type": "U",
        "meta_norad_cat_id": 49260,
        "meta_element_set_no": 999,
        "meta_rev_at_epoch": 22468,
        "meta_bstar": 9.0213287e-05,
        "meta_mean_motion_dot": 3.61e-06,
        "meta_mean_motion_ddot": 0,
        "tle_line1": "1 49260U 21088A   25352.45903769  .00000361  00000+0  90213-4 0  9998",
        "tle_line2": "2 49260  98.2089  60.4871 0001116  90.4673 269.6653 14.57103836224680"
      },
      "geometry": {
        "type": "Point",
        "coordinates": [
          -128.0586813706472,
          -47.494733164331045
        ]
      }
    },
    {
      "type": "Feature",
      "properties": {
        "norad_id": 51444,
        "name": "CSG-2",
        "group": "resource",
        "lat": 81.2271967373119,
        "lon": 110.38598684265791,
        "alt_km": 614.0729233567745,
        "timestamp": "2025-12-18T23:35:48.705035+00:00",
        "meta_object_name": "CSG-2",
        "meta_object_id": "2022-008A",
        "meta_epoch": "2025-12-18T15:06:30.479616",
        "meta_mean_motion": 14.82150695,
        "meta_eccentricity": 0.00014788,
        "meta_inclination": 97.8799,
        "meta_ra_of_asc_node": 173.8634,
        "meta_arg_of_pericenter": 83.6122,
        "meta_mean_anomaly": 276.526,
        "meta_ephemeris_type": 0,
        "meta_classification_type": "U",
        "meta_norad_cat_id": 51444,
        "meta_element_set_no": 999,
        "meta_rev_at_epoch": 20984,
        "meta_bstar": 6.5956616e-05,
        "meta_mean_motion_dot": 4.73e-06,
        "meta_mean_motion_ddot": 0,
        "tle_line1": "1 51444U 22008A   25352.62951944  .00000473  00000+0  65957-4 0  9996",
        "tle_line2": "2 51444  97.8799 173.8634 0001478  83.6122 276.5260 14.82150695209845"
      },
      "geometry": {
        "type": "Point",
        "coordinates": [
          110.38598684265791,
          81.2271967373119
        ]
      }
    }
  ]
}